55161,ONEWEB-0620,2023,109.8,148.0,+,87.89,Active,1,LEO,USA,UK,Commercial,Communications,Falcon,1 55161U 23004X   24324.92872297  .00000391  00000+0  10665-2 0  9990,2 55161  87.8879 135.5150 0001152 104.7332 255.3923 13.11417560 90564,13.1141756,0.0001152,LEO
55162,ONEWEB-0621,2023,109.8,148.0,+,87.89,Active,1,LEO,USA,UK,Commercial,Communications,Falcon,1 55162U 23004Y   24325.48991652  .00000013  00000+0  16671-5 0  9997,2 55162  87.8874 135.3678 0001753  96.3924 263.7403 13.11416843 90618,13.11416843,0.0001753,LEO
55163,ONEWEB-0622,2023,109.81,148.0,+,87.89,Active,1,LEO,USA,UK,Commercial,Communications,Falcon,1 55163U 23004Z   24325.49500391 -.00000254  00000+0 -75252-3 0  9992,2 55163  87.8876 135.3856 0001504 125.7364 234.3903 13.11414694 90608,13.11414694,0.0001504,LEO
55164,ONEWEB-0623,2023,109.29,148.0,+,87.91,Active,1,LEO,USA,UK,Commercial,Communications,Falcon,1 55164U 23004AA  24325.39634323  .00000088  00000+0  19448-3 0  9993,2 55164  87.9075 120.1983 0001985 120.3444 239.7884 13.17649174 92021,13.17649174,0.0001985,LEO
55165,ONEWEB-0624,2023,109.72,148.0,+,87.89,Active,1,LEO,USA,UK,Commercial,Communications,Falcon,1 55165U 23004AB  24325.35765257 -.00000229  00000+0 -67265-3 0  9990,2 55165  87.8866 104.9250 0001670 103.0670 257.0645 13.12442564 92786,13.12442564,0.000167,LEO
55166,ONEWEB-0625,2023,109.29,148.0,+,87.91,Active,1,LEO,USA,UK,Commercial,Communications,Falcon,1 55166U 23004AC  24325.38620126  .00000106  00000+0  24048-3 0  9993,2 55166  87.9080 120.1991 0001661  89.0534 271.0788 13.17649547 92015,13.17649547,0.0001661,LEO
55167,ONEWEB-0626,2023,109.29,148.0,+,87.91,Active,1,LEO,USA,UK,Commercial,Communications,Falcon,1 55167U 23004AD  24325.45202939  .00000116  00000+0  26613-3 0  9991,2 55167  87.9077 120.1851 0001064  90.5678 269.5575 13.17650026 92021,13.17650026,0.0001064,LEO
55168,ONEWEB-0627,2023,109.29,148.0,+,87.91,Active,1,LEO,USA,UK,Commercial,Communications,Falcon,1 55168U 23004AE  24325.44021785  .00000109  00000+0  24720-3 0  9998,2 55168  87.9079 120.1896 0001692 118.7957 241.3344 13.17649309 92027,13.17649309,0.0001692,LEO
